[{"OBJECT_NAME":"STARLINK-2623","OBJECT_ID":"2021-038R","EPOCH":"2026-03-09T22:14:04.667424","MEAN_MOTION":15.30184624,"ECCENTRICITY":0.00015347,"INCLINATION":53.1573,"RA_OF_ASC_NODE":346.6863,"ARG_OF_PERICENTER":121.9928,"MEAN_ANOMALY":238.1222,"EPHEMERIS_TYPE":0,"CLASSIFICATION_TYPE":"U","NORAD_CAT_ID":48368,"ELEMENT_SET_NO":999,"REV_AT_EPOCH":26726,"BSTAR":0.00020704729,"MEAN_MOTION_DOT":5.775e-5,"MEAN_MOTION_DDOT":0},{"OBJECT_NAME":"ION SCV-008","OBJECT_ID":"2023-001AU","EPOCH":"2026-03-09T19:46:58.662912","MEAN_MOTION":15.2722664,"ECCENTRICITY":0.00151921,"INCLINATION":97.5676,"RA_OF_ASC_NODE":163.606,"ARG_OF_PERICENTER":8.542,"MEAN_ANOMALY":351.6074,"EPHEMERIS_TYPE":0,"CLASSIFICATION_TYPE":"U","NORAD_CAT_ID":55051,"ELEMENT_SET_NO":999,"REV_AT_EPOCH":17616,"BSTAR":0.00031422806,"MEAN_MOTION_DOT":8.336e-5,"MEAN_MOTION_DDOT":0}]
